start=new Date('2022-10-31T00:00:00.000Z').valueOf();
sats=[{"CLASSIFICATION_TYPE":"U","OBJECT_TYPE":"PAYLOAD","EPOCH":"2022-10-30T19:16:24.949920","SEMIMAJOR_AXIS":"6700.938","BSTAR":"0.00065745000000","DECAY_DATE":null,"OBJECT_ID":"2020-038AH","OBJECT_NAME":"STARLINK-1495","REV_AT_EPOCH":"13430","LAUNCH_DATE":"2020-06-13","TIME_SYSTEM":"UTC","SITE":"AFETR","MEAN_MOTION":"15.82702846","ELEMENT_SET_NO":"999","APOAPSIS":"323.589","NORAD_CAT_ID":"45761","TLE_LINE1":"1 45761U 20038AH  22303.80306655  .00142941  00000-0  65745-3 0  9990","GP_ID":"216525550","TLE_LINE2":"2 45761  53.0363 135.0534 0001173 246.7710 113.3188 15.82702846134304","COUNTRY_CODE":"US","FILE":"3637924","RA_OF_ASC_NODE":"135.0534","MEAN_MOTION_DDOT":"0.0000000000000","MEAN_MOTION_DOT":"0.00142941","RCS_SIZE":"LARGE","PERIAPSIS":"322.017","ECCENTRICITY":"0.00011730","REF_FRAME":"TEME","CENTER_NAME":"EARTH","PERIOD":"90.984","INCLINATION":"53.0363","MEAN_ANOMALY":"113.3188","MEAN_ELEMENT_THEORY":"SGP4","EPHEMERIS_TYPE":"0","ARG_OF_PERICENTER":"246.7710"},{"FILE":"3637867","GP_ID":"216500714","TLE_LINE2":"2 45762  53.0551 319.0537 0002733  58.1839 301.9418 15.11085137131689","COUNTRY_CODE":"US","TLE_LINE1":"1 45762U 20038AJ  22303.32045859  .00019741  00000-0  11800-2 0  9997","RA_OF_ASC_NODE":"319.0537","REF_FRAME":"TEME","ECCENTRICITY":"0.00027330","MEAN_MOTION_DDOT":"0.0000000000000","MEAN_MOTION_DOT":"0.00019741","PERIAPSIS":"531.003","RCS_SIZE":"LARGE","EPHEMERIS_TYPE":"0","ARG_OF_PERICENTER":"58.1839","MEAN_ELEMENT_THEORY":"SGP4","MEAN_ANOMALY":"301.9418","PERIOD":"95.296","INCLINATION":"53.0551","CENTER_NAME":"EARTH","SEMIMAJOR_AXIS":"6911.026","EPOCH":"2022-10-30T07:41:27.622176","CLASSIFICATION_TYPE":"U","OBJECT_TYPE":"PAYLOAD","OBJECT_ID":"2020-038AJ","DECAY_DATE":null,"BSTAR":"0.00118000000000","SITE":"AFETR","ELEMENT_SET_NO":"999","MEAN_MOTION":"15.11085137","LAUNCH_DATE":"2020-06-13","TIME_SYSTEM":"UTC","REV_AT_EPOCH":"13168","OBJECT_NAME":"STARLINK-1499","NORAD_CAT_ID":"45762","APOAPSIS":"534.780"},{"APOAPSIS":"548.758","NORAD_CAT_ID":"45764","REV_AT_EPOCH":"13165","OBJECT_NAME":"STARLINK-1502","SITE":"AFETR","ELEMENT_SET_NO":"999","MEAN_MOTION":"15.06416318","TIME_SYSTEM":"UTC","LAUNCH_DATE":"2020-06-13","BSTAR":"0.00062633000000","OBJECT_ID":"2020-038AL","DECAY_DATE":null,"OBJECT_TYPE":"PAYLOAD","CLASSIFICATION_TYPE":"U","SEMIMAJOR_AXIS":"6925.299","EPOCH":"2022-10-30T09:32:28.088448","MEAN_ANOMALY":"317.6729","PERIOD":"95.591","INCLINATION":"53.0546","CENTER_NAME":"EARTH","EPHEMERIS_TYPE":"0","ARG_OF_PERICENTER":"42.4438","MEAN_ELEMENT_THEORY":"SGP4","ECCENTRICITY":"0.00023030","RCS_SIZE":"LARGE","PERIAPSIS":"545.569","MEAN_MOTION_DDOT":"0.0000000000000","MEAN_MOTION_DOT":"0.00009064","REF_FRAME":"TEME","RA_OF_ASC_NODE":"321.6682","TLE_LINE1":"1 45764U 20038AL  22303.39754732  .00009064  00000-0  62633-3 0  9991","FILE":"3637867","TLE_LINE2":"2 45764  53.0546 321.6682 0002303  42.4438 317.6729 15.06416318131658","COUNTRY_CODE":"US","GP_ID":"216499966"},{"TLE_LINE2":"2 45766  53.0553 319.6158 0001939  48.1839 311.9315 15.06392338131704","COUNTRY_CODE":"US","GP_ID":"216525301","FILE":"3637924","TLE_LINE1":"1 45766U 20038AN  22303.85092323 -.00000630  00000-0 -23379-4 0  9992","RA_OF_ASC_NODE":"319.6158","REF_FRAME":"TEME","RCS_SIZE":"LARGE","PERIAPSIS":"545.894","MEAN_MOTION_DOT":"-0.00000630","MEAN_MOTION_DDOT":"0.0000000000000","ECCENTRICITY":"0.00019390","MEAN_ELEMENT_THEORY":"SGP4","ARG_OF_PERICENTER":"48.1839","EPHEMERIS_TYPE":"0","CENTER_NAME":"EARTH","PERIOD":"95.593","INCLINATION":"53.0553","MEAN_ANOMALY":"311.9315","EPOCH":"2022-10-30T20:25:19.767072","SEMIMAJOR_AXIS":"6925.372","OBJECT_TYPE":"PAYLOAD","CLASSIFICATION_TYPE":"U","DECAY_DATE":null,"OBJECT_ID":"2020-038AN","BSTAR":"-0.00002337900000","TIME_SYSTEM":"UTC","LAUNCH_DATE":"2020-06-13","SITE":"AFETR","ELEMENT_SET_NO":"999","MEAN_MOTION":"15.06392338","OBJECT_NAME":"STARLINK-1509","REV_AT_EPOCH":"13170","NORAD_CAT_ID":"45766","APOAPSIS":"548.580"},{"CENTER_NAME":"EARTH","INCLINATION":"53.0535","PERIOD":"95.591","MEAN_ANOMALY":"315.1785","MEAN_ELEMENT_THEORY":"SGP4","ARG_OF_PERICENTER":"44.9380","EPHEMERIS_TYPE":"0","RCS_SIZE":"LARGE","PERIAPSIS":"545.659","MEAN_MOTION_DDOT":"0.0000000000000","MEAN_MOTION_DOT":"0.00004544","ECCENTRICITY":"0.00021760","REF_FRAME":"TEME","RA_OF_ASC_NODE":"322.0442","TLE_LINE1":"1 45767U 20038AP  22303.31275976  .00004544  00000-0  32366-3 0  9992","TLE_LINE2":"2 45767  53.0535 322.0442 0002176  44.9380 315.1785 15.06415457131624","COUNTRY_CODE":"US","GP_ID":"216500966","FILE":"3637867","APOAPSIS":"548.673","NORAD_CAT_ID":"45767","OBJECT_NAME":"STARLINK-1511","REV_AT_EPOCH":"13162","TIME_SYSTEM":"UTC","LAUNCH_DATE":"2020-06-13","MEAN_MOTION":"15.06415457","SITE":"AFETR","ELEMENT_SET_NO":"999","BSTAR":"0.00032366000000","DECAY_DATE":null,"OBJECT_ID":"2020-038AP","OBJECT_TYPE":"PAYLOAD","CLASSIFICATION_TYPE":"U","EPOCH":"2022-10-30T07:30:22.443264","SEMIMAJOR_AXIS":"6925.301"},{"BSTAR":"-0.00008185700000","OBJECT_ID":"2020-038AQ","DECAY_DATE":null,"OBJECT_TYPE":"PAYLOAD","CLASSIFICATION_TYPE":"U","SEMIMAJOR_AXIS":"6925.389","EPOCH":"2022-10-30T18:12:38.581632","APOAPSIS":"548.600","NORAD_CAT_ID":"45768","REV_AT_EPOCH":"13170","OBJECT_NAME":"STARLINK-1521","SITE":"AFETR","ELEMENT_SET_NO":"999","MEAN_MOTION":"15.06386808","TIME_SYSTEM":"UTC","LAUNCH_DATE":"2020-06-13","RA_OF_ASC_NODE":"320.0253","TLE_LINE1":"1 45768U 20038AQ  22303.75877988 -.00001500  00000-0 -81857-4 0  9993","FILE":"3637924","COUNTRY_CODE":"US","TLE_LINE2":"2 45768  53.0543 320.0253 0001943  46.8415 313.2737 15.06386808131705","GP_ID":"216526795","PERIOD":"95.593","INCLINATION":"53.0543","MEAN_ANOMALY":"313.2737","CENTER_NAME":"EARTH","EPHEMERIS_TYPE":"0","ARG_OF_PERICENTER":"46.8415","MEAN_ELEMENT_THEORY":"SGP4","ECCENTRICITY":"0.00019430","RCS_SIZE":"LARGE","PERIAPSIS":"545.908","MEAN_MOTION_DOT":"-0.00001500","MEAN_MOTION_DDOT":"0.0000000000000","REF_FRAME":"TEME"},{"RA_OF_ASC_NODE":"340.8301","GP_ID":"216527039","TLE_LINE2":"2 45769  53.0548 340.8301 0001842  43.1765 316.9369 15.06399780131390","COUNTRY_CODE":"US","FILE":"3637924","TLE_LINE1":"1 45769U 20038AR  22303.58368191 -.00000497  00000-0 -14434-4 0  9997","MEAN_ELEMENT_THEORY":"SGP4","EPHEMERIS_TYPE":"0","ARG_OF_PERICENTER":"43.1765","CENTER_NAME":"EARTH","INCLINATION":"53.0548","PERIOD":"95.592","MEAN_ANOMALY":"316.9369","REF_FRAME":"TEME","MEAN_MOTION_DDOT":"0.0000000000000","MEAN_MOTION_DOT":"-0.00000497","PERIAPSIS":"545.939","RCS_SIZE":"LARGE","ECCENTRICITY":"0.00018420","DECAY_DATE":null,"OBJECT_ID":"2020-038AR","BSTAR":"-0.00001443400000","EPOCH":"2022-10-30T14:00:30.117024","SEMIMAJOR_AXIS":"6925.349","CLASSIFICATION_TYPE":"U","OBJECT_TYPE":"PAYLOAD","NORAD_CAT_ID":"45769","APOAPSIS":"548.490","LAUNCH_DATE":"2020-06-13","TIME_SYSTEM":"UTC","ELEMENT_SET_NO":"999","SITE":"AFETR","MEAN_MOTION":"15.06399780","OBJECT_NAME":"STARLINK-1459","REV_AT_EPOCH":"13139"},{"BSTAR":"-0.00004918000000","OBJECT_ID":"2020-038AS","DECAY_DATE":null,"CLASSIFICATION_TYPE":"U","OBJECT_TYPE":"PAYLOAD","SEMIMAJOR_AXIS":"6925.340","EPOCH":"2022-10-30T17:15:31.944672","APOAPSIS":"548.715","NORAD_CAT_ID":"45770","REV_AT_EPOCH":"13196","OBJECT_NAME":"STARLINK-1462","MEAN_MOTION":"15.06402766","SITE":"AFETR","ELEMENT_SET_NO":"999","LAUNCH_DATE":"2020-06-13","TIME_SYSTEM":"UTC","RA_OF_ASC_NODE":"300.2268","TLE_LINE1":"1 45770U 20038AS  22303.71911973 -.00001014  00000-0 -49180-4 0  9998","FILE":"3637924","GP_ID":"216525799","COUNTRY_CODE":"US","TLE_LINE2":"2 45770  53.0534 300.2268 0002180  61.0292 299.0915 15.06402766131969","INCLINATION":"53.0534","PERIOD":"95.592","MEAN_ANOMALY":"299.0915","CENTER_NAME":"EARTH","EPHEMERIS_TYPE":"0","ARG_OF_PERICENTER":"61.0292","MEAN_ELEMENT_THEORY":"SGP4","ECCENTRICITY":"0.00021800","MEAN_MOTION_DOT":"-0.00001014","MEAN_MOTION_DDOT":"0.0000000000000","RCS_SIZE":"LARGE","PERIAPSIS":"545.695","REF_FRAME":"TEME"},{"RA_OF_ASC_NODE":"300.2531","TLE_LINE1":"1 45771U 20038AT  22303.71269419 -.00001095  00000-0 -54651-4 0  9998","FILE":"3637924","COUNTRY_CODE":"US","TLE_LINE2":"2 45771  53.0543 300.2531 0001681  54.5601 305.5544 15.06393799131965","GP_ID":"216525551","INCLINATION":"53.0543","PERIOD":"95.593","MEAN_ANOMALY":"305.5544","CENTER_NAME":"EARTH","ARG_OF_PERICENTER":"54.5601","EPHEMERIS_TYPE":"0","MEAN_ELEMENT_THEORY":"SGP4","ECCENTRICITY":"0.00016810","RCS_SIZE":"LARGE","PERIAPSIS":"546.068","MEAN_MOTION_DDOT":"0.0000000000000","MEAN_MOTION_DOT":"-0.00001095","REF_FRAME":"TEME","BSTAR":"-0.00005465100000","OBJECT_ID":"2020-038AT","DECAY_DATE":null,"OBJECT_TYPE":"PAYLOAD","CLASSIFICATION_TYPE":"U","SEMIMAJOR_AXIS":"6925.368","EPOCH":"2022-10-30T17:06:16.778016","APOAPSIS":"548.397","NORAD_CAT_ID":"45771","REV_AT_EPOCH":"13196","OBJECT_NAME":"STARLINK-1463","SITE":"AFETR","MEAN_MOTION":"15.06393799","ELEMENT_SET_NO":"999","TIME_SYSTEM":"UTC","LAUNCH_DATE":"2020-06-13"},{"DECAY_DATE":null,"OBJECT_ID":"2020-038AU","BSTAR":"-0.00018440000000","EPOCH":"2022-10-30T05:41:35.764800","SEMIMAJOR_AXIS":"6925.364","CLASSIFICATION_TYPE":"U","OBJECT_TYPE":"PAYLOAD","NORAD_CAT_ID":"45772","APOAPSIS":"548.621","LAUNCH_DATE":"2020-06-13","TIME_SYSTEM":"UTC","ELEMENT_SET_NO":"999","SITE":"AFETR","MEAN_MOTION":"15.06395009","OBJECT_NAME":"STARLINK-1470","REV_AT_EPOCH":"13190","RA_OF_ASC_NODE":"302.3834","GP_ID":"216500715","COUNTRY_CODE":"US","TLE_LINE2":"2 45772  53.0559 302.3834 0002010  51.5484 308.5685 15.06395009131904","FILE":"3637867","TLE_LINE1":"1 45772U 20038AU  22303.23721950 -.00003027  00000-0 -18440-3 0  9991","MEAN_ELEMENT_THEORY":"SGP4","EPHEMERIS_TYPE":"0","ARG_OF_PERICENTER":"51.5484","CENTER_NAME":"EARTH","INCLINATION":"53.0559","PERIOD":"95.592","MEAN_ANOMALY":"308.5685","REF_FRAME":"TEME","MEAN_MOTION_DDOT":"0.0000000000000","MEAN_MOTION_DOT":"-0.00003027","PERIAPSIS":"545.837","RCS_SIZE":"LARGE","ECCENTRICITY":"0.00020100"}];
